[{"OBJECT_NAME":"STARLINK-30995","OBJECT_ID":"2023-186B","EPOCH":"2025-09-19T23:14:10.426272","MEAN_MOTION":15.28751445,"ECCENTRICITY":0.00029107,"INCLINATION":43.0011,"RA_OF_ASC_NODE":133.3259,"ARG_OF_PERICENTER":260.7715,"MEAN_ANOMALY":99.2808,"EPHEMERIS_TYPE":0,"CLASSIFICATION_TYPE":"U","NORAD_CAT_ID":58474,"ELEMENT_SET_NO":999,"REV_AT_EPOCH":10196,"BSTAR":0.00056698954,"MEAN_MOTION_DOT":0.00015942,"MEAN_MOTION_DDOT":0},{"OBJECT_NAME":"STARLINK-30941","OBJECT_ID":"2023-186C","EPOCH":"2025-09-20T17:42:29.137536","MEAN_MOTION":15.02536076,"ECCENTRICITY":0.00014301,"INCLINATION":43.0033,"RA_OF_ASC_NODE":271.1546,"ARG_OF_PERICENTER":283.9103,"MEAN_ANOMALY":76.1581,"EPHEMERIS_TYPE":0,"CLASSIFICATION_TYPE":"U","NORAD_CAT_ID":58475,"ELEMENT_SET_NO":999,"REV_AT_EPOCH":10028,"BSTAR":5.112338e-6,"MEAN_MOTION_DOT":-1.35e-6,"MEAN_MOTION_DDOT":0},{"OBJECT_NAME":"STARLINK-30980","OBJECT_ID":"2023-186D","EPOCH":"2025-09-20T17:37:41.742624","MEAN_MOTION":15.02536127,"ECCENTRICITY":0.00013244,"INCLINATION":43.0033,"RA_OF_ASC_NODE":271.1291,"ARG_OF_PERICENTER":278.2976,"MEAN_ANOMALY":81.7716,"EPHEMERIS_TYPE":0,"CLASSIFICATION_TYPE":"U","NORAD_CAT_ID":58476,"ELEMENT_SET_NO":999,"REV_AT_EPOCH":10028,"BSTAR":1.374527e-5,"MEAN_MOTION_DOT":-1.8e-7,"MEAN_MOTION_DDOT":0},{"OBJECT_NAME":"STARLINK-30965","OBJECT_ID":"2023-186E","EPOCH":"2025-09-20T17:17:17.395008","MEAN_MOTION":15.02536712,"ECCENTRICITY":0.000152,"INCLINATION":43.0056,"RA_OF_ASC_NODE":258.0159,"ARG_OF_PERICENTER":278.9981,"MEAN_ANOMALY":81.069,"EPHEMERIS_TYPE":0,"CLASSIFICATION_TYPE":"U","NORAD_CAT_ID":58477,"ELEMENT_SET_NO":999,"REV_AT_EPOCH":10043,"BSTAR":1.6305572e-5,"MEAN_MOTION_DOT":1.7e-7,"MEAN_MOTION_DDOT":0},{"OBJECT_NAME":"STARLINK-30990","OBJECT_ID":"2023-186F","EPOCH":"2025-09-20T17:32:51.917280","MEAN_MOTION":15.02609361,"ECCENTRICITY":0.00019987,"INCLINATION":43.0035,"RA_OF_ASC_NODE":271.1031,"ARG_OF_PERICENTER":293.5992,"MEAN_ANOMALY":66.464,"EPHEMERIS_TYPE":0,"CLASSIFICATION_TYPE":"U","NORAD_CAT_ID":58478,"ELEMENT_SET_NO":999,"REV_AT_EPOCH":10032,"BSTAR":-0.0012321189,"MEAN_MOTION_DOT":-0.00016841,"MEAN_MOTION_DDOT":0},{"OBJECT_NAME":"STARLINK-30984","OBJECT_ID":"2023-186H","EPOCH":"2025-09-20T18:01:29.863776","MEAN_MOTION":15.02536469,"ECCENTRICITY":0.00012207,"INCLINATION":43.0019,"RA_OF_ASC_NODE":270.3885,"ARG_OF_PERICENTER":272.582,"MEAN_ANOMALY":87.4883,"EPHEMERIS_TYPE":0,"CLASSIFICATION_TYPE":"U","NORAD_CAT_ID":58480,"ELEMENT_SET_NO":999,"REV_AT_EPOCH":10029,"BSTAR":2.5556013e-5,"MEAN_MOTION_DOT":1.42e-6,"MEAN_MOTION_DDOT":0},{"OBJECT_NAME":"STARLINK-30956","OBJECT_ID":"2023-186J","EPOCH":"2025-09-20T00:52:05.966688","MEAN_MOTION":15.02536679,"ECCENTRICITY":9.059e-5,"INCLINATION":43.0016,"RA_OF_ASC_NODE":250.0678,"ARG_OF_PERICENTER":278.0542,"MEAN_ANOMALY":82.0198,"EPHEMERIS_TYPE":0,"CLASSIFICATION_TYPE":"U","NORAD_CAT_ID":58481,"ELEMENT_SET_NO":999,"REV_AT_EPOCH":10046,"BSTAR":2.8545286e-5,"MEAN_MOTION_DOT":1.82e-6,"MEAN_MOTION_DDOT":0},{"OBJECT_NAME":"STARLINK-30997","OBJECT_ID":"2023-186K","EPOCH":"2025-09-19T18:29:32.747424","MEAN_MOTION":15.02538511,"ECCENTRICITY":0.00011972,"INCLINATION":43.0015,"RA_OF_ASC_NODE":275.9047,"ARG_OF_PERICENTER":271.2484,"MEAN_ANOMALY":88.8221,"EPHEMERIS_TYPE":0,"CLASSIFICATION_TYPE":"U","NORAD_CAT_ID":58482,"ELEMENT_SET_NO":999,"REV_AT_EPOCH":10014,"BSTAR":0.00010008698,"MEAN_MOTION_DOT":1.149e-5,"MEAN_MOTION_DDOT":0},{"OBJECT_NAME":"STARLINK-30994","OBJECT_ID":"2023-186L","EPOCH":"2025-09-20T22:37:59.393856","MEAN_MOTION":15.27574421,"ECCENTRICITY":0.00014121,"INCLINATION":42.9976,"RA_OF_ASC_NODE":138.8039,"ARG_OF_PERICENTER":265.7829,"MEAN_ANOMALY":94.2861,"EPHEMERIS_TYPE":0,"CLASSIFICATION_TYPE":"U","NORAD_CAT_ID":58483,"ELEMENT_SET_NO":999,"REV_AT_EPOCH":10184,"BSTAR":0.00037893676,"MEAN_MOTION_DOT":0.00010178,"MEAN_MOTION_DDOT":0},{"OBJECT_NAME":"STARLINK-30991","OBJECT_ID":"2023-186M","EPOCH":"2025-09-20T17:56:41.922816","MEAN_MOTION":15.02539602,"ECCENTRICITY":0.00013712,"INCLINATION":43.0044,"RA_OF_ASC_NODE":270.3609,"ARG_OF_PERICENTER":273.7895,"MEAN_ANOMALY":86.279,"EPHEMERIS_TYPE":0,"CLASSIFICATION_TYPE":"U","NORAD_CAT_ID":58484,"ELEMENT_SET_NO":999,"REV_AT_EPOCH":10028,"BSTAR":3.6628315e-5,"MEAN_MOTION_DOT":2.91e-6,"MEAN_MOTION_DDOT":0},{"OBJECT_NAME":"STARLINK-30979","OBJECT_ID":"2023-186N","EPOCH":"2025-09-20T17:23:18.636000","MEAN_MOTION":15.02538079,"ECCENTRICITY":0.00014407,"INCLINATION":43.0029,"RA_OF_ASC_NODE":271.0528,"ARG_OF_PERICENTER":282.1182,"MEAN_ANOMALY":77.9499,"EPHEMERIS_TYPE":0,"CLASSIFICATION_TYPE":"U","NORAD_CAT_ID":58485,"ELEMENT_SET_NO":999,"REV_AT_EPOCH":10027,"BSTAR":2.7345065e-5,"MEAN_MOTION_DOT":1.66e-6,"MEAN_MOTION_DDOT":0},{"OBJECT_NAME":"STARLINK-31005","OBJECT_ID":"2023-186P","EPOCH":"2025-09-20T17:18:30.879072","MEAN_MOTION":15.025362,"ECCENTRICITY":0.00013529,"INCLINATION":43.0034,"RA_OF_ASC_NODE":271.0269,"ARG_OF_PERICENTER":271.5826,"MEAN_ANOMALY":88.4861,"EPHEMERIS_TYPE":0,"CLASSIFICATION_TYPE":"U","NORAD_CAT_ID":58486,"ELEMENT_SET_NO":999,"REV_AT_EPOCH":10027,"BSTAR":8.539386e-6,"MEAN_MOTION_DOT":-8.8e-7,"MEAN_MOTION_DDOT":0},{"OBJECT_NAME":"STARLINK-30987","OBJECT_ID":"2023-186Q","EPOCH":"2025-09-20T17:13:42.455136","MEAN_MOTION":15.02544198,"ECCENTRICITY":7.97e-5,"INCLINATION":43.0011,"RA_OF_ASC_NODE":271.001,"ARG_OF_PERICENTER":288.212,"MEAN_ANOMALY":71.8636,"EPHEMERIS_TYPE":0,"CLASSIFICATION_TYPE":"U","NORAD_CAT_ID":58487,"ELEMENT_SET_NO":999,"REV_AT_EPOCH":10027,"BSTAR":5.4067966e-5,"MEAN_MOTION_DOT":5.27e-6,"MEAN_MOTION_DDOT":0},{"OBJECT_NAME":"STARLINK-31000","OBJECT_ID":"2023-186R","EPOCH":"2025-09-20T17:08:56.915232","MEAN_MOTION":15.025241,"ECCENTRICITY":0.00014852,"INCLINATION":43.0036,"RA_OF_ASC_NODE":270.9766,"ARG_OF_PERICENTER":280.5007,"MEAN_ANOMALY":79.5668,"EPHEMERIS_TYPE":0,"CLASSIFICATION_TYPE":"U","NORAD_CAT_ID":58488,"ELEMENT_SET_NO":999,"REV_AT_EPOCH":10027,"BSTAR":-1.103312e-5,"MEAN_MOTION_DOT":-3.53e-6,"MEAN_MOTION_DDOT":0},{"OBJECT_NAME":"STARLINK-30993","OBJECT_ID":"2023-186S","EPOCH":"2025-09-20T17:04:07.671360","MEAN_MOTION":15.0253702,"ECCENTRICITY":0.0001432,"INCLINATION":43.0012,"RA_OF_ASC_NODE":270.9533,"ARG_OF_PERICENTER":277.4414,"MEAN_ANOMALY":82.6265,"EPHEMERIS_TYPE":0,"CLASSIFICATION_TYPE":"U","NORAD_CAT_ID":58489,"ELEMENT_SET_NO":999,"REV_AT_EPOCH":10027,"BSTAR":4.057753e-6,"MEAN_MOTION_DOT":-1.49e-6,"MEAN_MOTION_DDOT":0},{"OBJECT_NAME":"STARLINK-30978","OBJECT_ID":"2023-186T","EPOCH":"2025-09-20T16:59:20.072544","MEAN_MOTION":15.02539137,"ECCENTRICITY":0.00013186,"INCLINATION":43.004,"RA_OF_ASC_NODE":270.9272,"ARG_OF_PERICENTER":275.7553,"MEAN_ANOMALY":84.3139,"EPHEMERIS_TYPE":0,"CLASSIFICATION_TYPE":"U","NORAD_CAT_ID":58490,"ELEMENT_SET_NO":999,"REV_AT_EPOCH":10027,"BSTAR":6.3060547e-5,"MEAN_MOTION_DOT":6.48e-6,"MEAN_MOTION_DDOT":0}]
