STARLINK-30995          
1 58474U 23186B   25262.96817623  .00015942  00000+0  56699-3 0  9995
2 58474  43.0011 133.3259 0002910 260.7715  99.2808 15.28751445101960
STARLINK-30941          
1 58475U 23186C   25263.73783724 -.00000135  00000+0  51123-5 0  9994
2 58475  43.0033 271.1546 0001430 283.9103  76.1581 15.02536076100288
STARLINK-30980          
1 58476U 23186D   25263.73451091 -.00000018  00000+0  13745-4 0  9991
2 58476  43.0033 271.1291 0001324 278.2976  81.7716 15.02536127100282
STARLINK-30965          
1 58477U 23186E   25263.72034022  .00000017  00000+0  16306-4 0  9996
2 58477  43.0056 258.0159 0001520 278.9981  81.0690 15.02536712100437
STARLINK-30990          
1 58478U 23186F   25263.73115645 -.00016841  00000+0 -12321-2 0  9994
2 58478  43.0035 271.1031 0001998 293.5992  66.4640 15.02609361100325
STARLINK-30984          
1 58480U 23186H   25263.75104009  .00000142  00000+0  25556-4 0  9992
2 58480  43.0019 270.3885 0001220 272.5820  87.4883 15.02536469100299
STARLINK-30956          
1 58481U 23186J   25263.03618017  .00000182  00000+0  28545-4 0  9998
2 58481  43.0016 250.0678 0000905 278.0542  82.0198 15.02536679100465
STARLINK-30997          
1 58482U 23186K   25262.77051791  .00001149  00000+0  10009-3 0  9998
2 58482  43.0015 275.9047 0001197 271.2484  88.8221 15.02538511100148
STARLINK-30994          
1 58483U 23186L   25263.94304854  .00010178  00000+0  37894-3 0  9993
2 58483  42.9976 138.8039 0001412 265.7829  94.2861 15.27574421101848
STARLINK-30991          
1 58484U 23186M   25263.74770744  .00000291  00000+0  36628-4 0  9997
2 58484  43.0044 270.3609 0001371 273.7895  86.2790 15.02539602100282
STARLINK-30979          
1 58485U 23186N   25263.72452125  .00000166  00000+0  27345-4 0  9993
2 58485  43.0029 271.0528 0001440 282.1182  77.9499 15.02538079100273
STARLINK-31005          
1 58486U 23186P   25263.72119073 -.00000088  00000+0  85394-5 0  9999
2 58486  43.0034 271.0269 0001352 271.5826  88.4861 15.02536200100275
STARLINK-30987          
1 58487U 23186Q   25263.71785249  .00000527  00000+0  54068-4 0  9993
2 58487  43.0011 271.0010 0000797 288.2120  71.8636 15.02544198100270
STARLINK-31000          
1 58488U 23186R   25263.71454763 -.00000353  00000+0 -11033-4 0  9992
2 58488  43.0036 270.9766 0001485 280.5007  79.5668 15.02524100100279
STARLINK-30993          
1 58489U 23186S   25263.71119990 -.00000149  00000+0  40578-5 0  9992
2 58489  43.0012 270.9533 0001432 277.4414  82.6265 15.02537020100278
STARLINK-30978          
1 58490U 23186T   25263.70787121  .00000648  00000+0  63061-4 0  9994
2 58490  43.0040 270.9272 0001318 275.7553  84.3139 15.02539137100279
